[Satellite]
VERSION=1.1
NAME=SL-3 R/B
NICKNAME=SL-3 R/B
TLE1=1 10114U 77057B   15053.83013494  .00002463  00000-0  13596-3 0  9991
TLE2=2 10114  97.2414 267.3150 0015510  36.0633 324.1642 15.14726076 55486
